SAUDISAT 2              
1 28371U 04025F   13116.14690726  .00000166  00000-0  49968-4 0  8801
2 28371  97.9404 111.1069 0026104 356.6473   3.4552 14.53385592467980
SSETI EXPRESS (XO-53)   
1 28894U 05043E   13115.61464587  .00000229  00000-0  56518-4 0  6725
2 28894  97.8674 331.3091 0016312 248.3798 145.1459 14.60295904399345
SAUDISAT 3              
1 31118U 07012B   13116.10693427  .00000107  00000-0  26551-4 0  4859
2 31118  97.8243 166.4749 0016788  71.8755 288.4286 14.68388460322901
ANIK G1                 
1 39127U 13014A   13115.35152631 -.00000076  00000-0  00000+0 0   228
2 39127   0.0051 347.5796 0004133 138.3826 104.8279  1.00340706   128
DTUSAT                  
1 27842U 03031C   13115.00716039  .00000146  00000-0  86521-4 0  6621
2 27842  98.6906 125.0366 0009508  26.5554  26.8643 14.21426563509305
QUAKESAT                
1 27845U 03031F   13115.60835253  .00000253  00000-0  13673-3 0  6806
2 27845  98.7110 125.4733 0009811  67.6845  79.9969 14.20965271509127
AAU CUBESAT             
1 27846U 03031G   13115.71326253  .00000147  00000-0  87351-4 0  5495
2 27846  98.6905 125.7215 0009381  24.7044  35.1362 14.21425113509403
CANX-1                  
1 27847U 03031H   13115.67695777  .00000122  00000-0  75979-4 0  5419
2 27847  98.6908 125.6533 0009413  24.8912  38.3232 14.21392863509338
UWE-1                   
1 28892U 05043C   13115.62534508  .00000514  00000-0  11361-3 0  5042
2 28892  97.8716 332.1010 0015981 244.0891 149.2262 14.61021496399383
NCUBE-2                 
1 28897U 05043H   13115.84709269  .00000558  00000-0  12173-3 0   404
2 28897  97.8746 333.6543 0015816 243.0491 245.2531 14.61311705391620
CSTB1                   
1 31122U 07012F   13115.51680297  .00000664  00000-0  15087-3 0  7941
2 31122  97.8649 121.0066 0083382 196.0553 318.1451 14.56944734320064
MAST                    
1 31126U 07012K   13116.06839650  .00000372  00000-0  92783-4 0  7388
2 31126  97.8799 114.9723 0092819 214.3797 191.1383 14.54514414319746
LIBERTAD-1              
1 31128U 07012M   13115.52698498  .00000422  00000-0  10569-3 0  8077
2 31128  97.8965 110.6686 0099974 231.7934 275.6336 14.53322492319332
POLYSAT CP3             
1 31129U 07012N   13115.66698362  .00000530  00000-0  12940-3 0  4456
2 31129  97.8958 111.2813 0099386 230.2256 190.4493 14.53580554319368
CAPE1                   
1 31130U 07012P   13114.96853951  .00000481  00000-0  11868-3 0  7464
2 31130  97.8964 110.2686 0099790 233.2949 125.9049 14.53413107319049
POLYSAT CP4             
1 31132U 07012Q   13115.01080189  .00000431  00000-0  10237-3 0  7518
2 31132  97.8634 119.5104 0084039 198.6884 220.4866 14.56414633319837
NTS (CANX-6)            
1 32784U 08021B   13115.68845539  .00000974  00000-0  12602-3 0  6096
2 32784  97.7549 173.3847 0016993 117.8664  28.2023 14.82985747269998
COMPASS-1               
1 32787U 08021E   13115.68879071  .00001958  00000-0  23378-3 0  6058
2 32787  97.7567 175.6081 0016408 116.1069  29.9485 14.85253997270178
AAUSAT-II               
1 32788U 08021F   13116.16884557  .00002135  00000-0  25174-3 0  5927
2 32788  97.7577 176.6635 0015927 114.8392 305.4940 14.85696891270289
CANX-2                  
1 32790U 08021H   13115.71636668  .00001066  00000-0  13520-3 0  6079
2 32790  97.7528 174.2595 0016594 119.4199  27.1375 14.83635068270067
SEEDS II (CO-66)        
1 32791U 08021J   13116.14490501  .00001666  00000-0  20382-3 0  5891
2 32791  97.7568 175.4813 0016835 115.7337 297.3092 14.84441135270157
UWE-2                   
1 35934U 09051D   13115.85822845  .00000507  00000-0  13165-3 0  6529
2 35934  98.3469 223.5241 0006000 229.7974 277.0173 14.53761355190333
TISAT 1                 
1 36799U 10035E   13116.10557329  .00001215  00000-0  15570-3 0   178
2 36799  98.0344 200.4911 0013483 234.5496 125.4470 14.83093990150851
E-ST@R                  
1 38079U 12006C   13115.97426382  .00056913  34789-5  12014-2 0   719
2 38079  69.4780 307.4196 0643979 205.9880 311.4763 14.39434327 62208
MASAT 1                 
1 38081U 12006E   13115.55669111  .00055452  34623-5  11840-2 0   399
2 38081  69.4711 308.3686 0642390 206.8962 149.7834 14.39548726 62149
XATCOBEO                
1 38082U 12006F   13115.90027623  .00066962  37084-5  13499-2 0  1019
2 38082  69.4835 302.7652 0613679 203.2149 154.0154 14.46749862 62331
PW-SAT                  
1 38083U 12006G   13115.91662340  .00065016  36481-5  13515-2 0  2202
2 38083  69.4761 304.9302 0626598 204.6139 152.3874 14.43395548 62272
RAIKO                   
1 38852U 98067CN  13115.70919905  .00077046  00000-0  65230-3 0  2072
2 38852  51.6404 357.9481 0014719 170.8238 189.3031 15.68879575 31602
FITSAT-1 (NIWAKA)       
1 38853U 98067CP  13115.09948883  .00125102  00000-0  84625-3 0  2078
2 38853  51.6423 358.3954 0012159 182.2395 177.8552 15.74045134 31592
TECHEDSAT               
1 38854U 98067CQ  13116.12314000  .00720757  24669-3  13841-2 0  2643
2 38854  51.6290 344.8240 0013405 225.4461 134.5455 15.99740445 31868
F-1                     
1 38855U 98067CR  13115.71979602  .00487209  10547-3  12966-2 0  2440
2 38855  51.6249 348.1240 0012135 209.1705 150.8665 15.93876645 31689
AAUSAT3                 
1 39087U 13009B   13116.01310708  .00000329  00000-0  13375-3 0   618
2 39087  98.6290 306.2325 0013729 101.1973 259.0729 14.34001780  8514
STRAND 1                
1 39090U 13009E   13115.51173794  .00000316  00000-0  12842-3 0   599
2 39090  98.6352 305.7945 0010399  99.6136 260.6243 14.34301783  8448
BRITE-AUSTRIA           
1 39091U 13009F   13115.57374387  .00000082  00000-0  44814-4 0   570
2 39091  98.6287 305.8306 0011441 108.0864 252.1571 14.34486818  8454
UNIBRITE                
1 39092U 13009G   13115.57892661  .00000281  00000-0  11585-3 0   604
2 39092  98.6266 305.8204 0010387 101.8355 258.4017 14.34362432  8452
METOP-A                 
1 29499U 06044A   13116.14303864  .00000079  00000-0  56005-4 0   265
2 29499  98.7177 176.4738 0000872 182.8217 177.2955 14.21485699338184
METOP-B                 
1 38771U 12049A   13116.18109590  .00000035  00000-0  36092-4 0  1913
2 38771  98.7069 177.2429 0001252 358.8370   1.2804 14.21475892 31320
AISSAT 1                
1 36797U 10035C   13116.11413544  .00000622  00000-0  84889-4 0   235
2 36797  98.0344 200.2877 0010979 241.2009 118.8107 14.82185056150835
CUBEBUG
1 12347U 12347A   13116.18500615  .00000000  00000-0  10000-4 0     0
2 12347  98.0563 191.7735 0017556 248.2772 282.5989 14.76251447    03
